{
  "type": "FeatureCollection",
  "features": [
    {
      "type": "Feature",
      "properties": {
        "norad_id": 34010,
        "name": "COSMOS 2251 DEB",
        "group": "cosmos-2251-debris",
        "lat": -18.48377610245841,
        "lon": 110.03029967088638,
        "alt_km": 517.2607108463135,
        "timestamp": "2025-12-12T03:50:52.811775+00:00",
        "meta_object_name": "COSMOS 2251 DEB",
        "meta_object_id": "1993-036GV",
        "meta_epoch": "2025-12-11T06:25:03.078336",
        "meta_mean_motion": 15.18254208,
        "meta_eccentricity": 0.00048872,
        "meta_inclination": 73.9973,
        "meta_ra_of_asc_node": 286.3957,
        "meta_arg_of_pericenter": 67.8921,
        "meta_mean_anomaly": 292.2794,
        "meta_ephemeris_type": 0,
        "meta_classification_type": "U",
        "meta_norad_cat_id": 34010,
        "meta_element_set_no": 999,
        "meta_rev_at_epoch": 89263,
        "meta_bstar": 0.0084689241,
        "meta_mean_motion_dot": 0.00177852,
        "meta_mean_motion_ddot": 0,
        "tle_line1": "1 34010U 93036GV  25345.26739674  .00177852  00000+0  84689-2 0  9998",
        "tle_line2": "2 34010  73.9973 286.3957 0004887  67.8921 292.2794 15.18254208892637"
      },
      "geometry": {
        "type": "Point",
        "coordinates": [
          110.03029967088638,
          -18.48377610245841
        ]
      }
    },
    {
      "type": "Feature",
      "properties": {
        "norad_id": 34011,
        "name": "COSMOS 2251 DEB",
        "group": "cosmos-2251-debris",
        "lat": 44.781544488597184,
        "lon": 134.69873242624092,
        "alt_km": 743.0537394771036,
        "timestamp": "2025-12-12T03:50:52.811784+00:00",
        "meta_object_name": "COSMOS 2251 DEB",
        "meta_object_id": "1993-036GW",
        "meta_epoch": "2025-12-11T08:55:09.473088",
        "meta_mean_motion": 14.41760376,
        "meta_eccentricity": 0.00354961,
        "meta_inclination": 74.0156,
        "meta_ra_of_asc_node": 332.688,
        "meta_arg_of_pericenter": 56.6458,
        "meta_mean_anomaly": 303.8087,
        "meta_ephemeris_type": 0,
        "meta_classification_type": "U",
        "meta_norad_cat_id": 34011,
        "meta_element_set_no": 999,
        "meta_rev_at_epoch": 87896,
        "meta_bstar": 0.0013577508,
        "meta_mean_motion_dot": 4.442e-05,
        "meta_mean_motion_ddot": 0,
        "tle_line1": "1 34011U 93036GW  25345.37163742  .00004442  00000+0  13578-2 0  9991",
        "tle_line2": "2 34011  74.0156 332.6880 0035496  56.6458 303.8087 14.41760376878961"
      },
      "geometry": {
        "type": "Point",
        "coordinates": [
          134.69873242624092,
          44.781544488597184
        ]
      }
    },
    {
      "type": "Feature",
      "properties": {
        "norad_id": 34014,
        "name": "COSMOS 2251 DEB",
        "group": "cosmos-2251-debris",
        "lat": 3.545929789055778,
        "lon": -77.12654839874418,
        "alt_km": 639.3995620302003,
        "timestamp": "2025-12-12T03:50:52.811794+00:00",
        "meta_object_name": "COSMOS 2251 DEB",
        "meta_object_id": "1993-036GZ",
        "meta_epoch": "2025-12-11T13:57:27.171936",
        "meta_mean_motion": 14.73115245,
        "meta_eccentricity": 0.00369197,
        "meta_inclination": 74.0172,
        "meta_ra_of_asc_node": 282.9843,
        "meta_arg_of_pericenter": 62.9237,
        "meta_mean_anomaly": 113.1654,
        "meta_ephemeris_type": 0,
        "meta_classification_type": "U",
        "meta_norad_cat_id": 34014,
        "meta_element_set_no": 999,
        "meta_rev_at_epoch": 89286,
        "meta_bstar": 0.0016341064,
        "meta_mean_motion_dot": 0.00010623,
        "meta_mean_motion_ddot": 0,
        "tle_line1": "1 34014U 93036GZ  25345.58156449  .00010623  00000+0  16341-2 0  9992",
        "tle_line2": "2 34014  74.0172 282.9843 0036919  62.9237 113.1654 14.73115245892865"
      },
      "geometry": {
        "type": "Point",
        "coordinates": [
          -77.12654839874418,
          3.545929789055778
        ]
      }
    },
    {
      "type": "Feature",
      "properties": {
        "norad_id": 34015,
        "name": "COSMOS 2251 DEB",
        "group": "cosmos-2251-debris",
        "lat": 31.40748584303562,
        "lon": -29.543125112911056,
        "alt_km": 695.4278623250248,
        "timestamp": "2025-12-12T03:50:52.811804+00:00",
        "meta_object_name": "COSMOS 2251 DEB",
        "meta_object_id": "1993-036HA",
        "meta_epoch": "2025-12-11T12:39:28.010592",
        "meta_mean_motion": 14.60225569,
        "meta_eccentricity": 0.00210443,
        "meta_inclination": 74.0234,
        "meta_ra_of_asc_node": 161.7399,
        "meta_arg_of_pericenter": 258.751,
        "meta_mean_anomaly": 162.733,
        "meta_ephemeris_type": 0,
        "meta_classification_type": "U",
        "meta_norad_cat_id": 34015,
        "meta_element_set_no": 999,
        "meta_rev_at_epoch": 88513,
        "meta_bstar": 0.0026147281,
        "meta_mean_motion_dot": 0.00012643,
        "meta_mean_motion_ddot": 0,
        "tle_line1": "1 34015U 93036HA  25345.52740753  .00012643  00000+0  26147-2 0  9993",
        "tle_line2": "2 34015  74.0234 161.7399 0021044 258.7510 162.7330 14.60225569885137"
      },
      "geometry": {
        "type": "Point",
        "coordinates": [
          -29.543125112911056,
          31.40748584303562
        ]
      }
    },
    {
      "type": "Feature",
      "properties": {
        "norad_id": 34018,
        "name": "COSMOS 2251 DEB",
        "group": "cosmos-2251-debris",
        "lat": 73.6282994046181,
        "lon": -166.83095304603083,
        "alt_km": 794.7857459101597,
        "timestamp": "2025-12-12T03:50:52.811814+00:00",
        "meta_object_name": "COSMOS 2251 DEB",
        "meta_object_id": "1993-036HD",
        "meta_epoch": "2025-12-11T13:34:45.382656",
        "meta_mean_motion": 13.81069638,
        "meta_eccentricity": 0.02638281,
        "meta_inclination": 73.8777,
        "meta_ra_of_asc_node": 94.0849,
        "meta_arg_of_pericenter": 130.1921,
        "meta_mean_anomaly": 249.5922,
        "meta_ephemeris_type": 0,
        "meta_classification_type": "U",
        "meta_norad_cat_id": 34018,
        "meta_element_set_no": 999,
        "meta_rev_at_epoch": 84641,
        "meta_bstar": 0.00080340881,
        "meta_mean_motion_dot": 1.084e-05,
        "meta_mean_motion_ddot": 0,
        "tle_line1": "1 34018U 93036HD  25345.56580304  .00001084  00000+0  80341-3 0  9998",
        "tle_line2": "2 34018  73.8777  94.0849 0263828 130.1921 249.5922 13.81069638846418"
      },
      "geometry": {
        "type": "Point",
        "coordinates": [
          -166.83095304603083,
          73.6282994046181
        ]
      }
    },
    {
      "type": "Feature",
      "properties": {
        "norad_id": 34019,
        "name": "COSMOS 2251 DEB",
        "group": "cosmos-2251-debris",
        "lat": 65.34509694256529,
        "lon": -167.0232737087408,
        "alt_km": 796.8782763068393,
        "timestamp": "2025-12-12T03:50:52.811824+00:00",
        "meta_object_name": "COSMOS 2251 DEB",
        "meta_object_id": "1993-036HE",
        "meta_epoch": "2025-12-11T05:49:55.803072",
        "meta_mean_motion": 14.33925838,
        "meta_eccentricity": 0.00627125,
        "meta_inclination": 73.9545,
        "meta_ra_of_asc_node": 53.4921,
        "meta_arg_of_pericenter": 234.9566,
        "meta_mean_anomaly": 181.0856,
        "meta_ephemeris_type": 0,
        "meta_classification_type": "U",
        "meta_norad_cat_id": 34019,
        "meta_element_set_no": 999,
        "meta_rev_at_epoch": 87499,
        "meta_bstar": 0.0013912453,
        "meta_mean_motion_dot": 3.94e-05,
        "meta_mean_motion_ddot": 0,
        "tle_line1": "1 34019U 93036HE  25345.24300698  .00003940  00000+0  13912-2 0  9992",
        "tle_line2": "2 34019  73.9545  53.4921 0062712 234.9566 181.0856 14.33925838874991"
      },
      "geometry": {
        "type": "Point",
        "coordinates": [
          -167.0232737087408,
          65.34509694256529
        ]
      }
    },
    {
      "type": "Feature",
      "properties": {
        "norad_id": 34021,
        "name": "COSMOS 2251 DEB",
        "group": "cosmos-2251-debris",
        "lat": 4.5763657206950255,
        "lon": -50.396365665656255,
        "alt_km": 730.3281582269565,
        "timestamp": "2025-12-12T03:50:52.811834+00:00",
        "meta_object_name": "COSMOS 2251 DEB",
        "meta_object_id": "1993-036HG",
        "meta_epoch": "2025-12-11T10:45:55.476000",
        "meta_mean_motion": 14.49941416,
        "meta_eccentricity": 0.00208998,
        "meta_inclination": 74.0357,
        "meta_ra_of_asc_node": 132.2525,
        "meta_arg_of_pericenter": 276.4192,
        "meta_mean_anomaly": 145.135,
        "meta_ephemeris_type": 0,
        "meta_classification_type": "U",
        "meta_norad_cat_id": 34021,
        "meta_element_set_no": 999,
        "meta_rev_at_epoch": 88611,
        "meta_bstar": 0.00087654579,
        "meta_mean_motion_dot": 3.374e-05,
        "meta_mean_motion_ddot": 0,
        "tle_line1": "1 34021U 93036HG  25345.44855875  .00003374  00000+0  87655-3 0  9996",
        "tle_line2": "2 34021  74.0357 132.2525 0020899 276.4192 145.1350 14.49941416886113"
      },
      "geometry": {
        "type": "Point",
        "coordinates": [
          -50.396365665656255,
          4.5763657206950255
        ]
      }
    }
  ]
}